APRIZESAT 2             
1 28366U 04025A   26197.99548766  .00000082  00000+0  38444-4 0  9991
2 28366  98.1044   2.2923 0106052 159.4479 201.1024 14.38048132155920
SAUDICOMSAT 1           
1 28369U 04025D   26198.47054222  .00000117  00000+0  38153-4 0  9993
2 28369  98.5778 209.4202 0030930 291.6703  68.1201 14.55494401168534
SAUDICOMSAT 2           
1 28370U 04025E   26198.48793640  .00000079  00000+0  32548-4 0  9999
2 28370  98.6643 211.5910 0055773 166.7496 193.5177 14.49995003164494
APRIZESAT 1             
1 28372U 04025G   26198.48205499  .00000095  00000+0  35467-4 0  9992
2 28372  98.6310 210.0326 0045726  63.8927 296.6962 14.51792750166301
NANOSAT-1               
1 28493U 04049B   26198.31860074  .00000453  00000+0  66890-4 0  9992
2 28493  98.2313 335.7233 0003966 177.2336 182.8898 14.80212972159907
SAUDICOMSAT 7           
1 31119U 07012C   26197.86885477  .00000228  00000+0  50058-4 0  9996
2 31119  98.3799 172.6113 0057009 103.1667 257.5906 14.66137543 26785
SAUDICOMSAT 6           
1 31121U 07012E   26197.84992488  .00000157  00000+0  40172-4 0  9995
2 31121  98.4118 165.9222 0070586 233.8607 125.6048 14.62585256 24526
SAUDICOMSAT 5           
1 31124U 07012H   26198.68666036  .00000267  00000+0  54802-4 0  9995
2 31124  98.3512 174.1871 0048081  31.1385 329.2653 14.68193769 28073
SAUDICOMSAT 3           
1 31125U 07012J   26198.39012846  .00000326  00000+0  61699-4 0  9996
2 31125  98.3166 174.4308 0038127 318.1551  41.6741 14.70751464 29260
SAUDICOMSAT 4           
1 31127U 07012L   26197.87488481  .00000189  00000+0  44404-4 0  9994
2 31127  98.4004 171.0543 0063689 164.5036 195.8136 14.64536156 25639
APRIZESAT 4             
1 35684U 09041D   26198.46612409  .00000340  00000+0  47360-4 0  9998
2 35684  98.1403 274.3888 0042383 221.9877 137.8085 14.83915547915856
APRIZESAT 3             
1 35686U 09041F   26198.39240433  .00000514  00000+0  49783-4 0  9990
2 35686  98.2104 353.0707 0060735 328.5965  31.1633 14.96314161920899
S-NET D                 
1 43186U 18014G   26198.60997463  .00002521  00000+0  13124-3 0  9999
2 43186  97.5327 103.2117 0006215 274.2830  85.7692 15.16929875463375
S-NET B                 
1 43187U 18014H   26198.62202689  .00002508  00000+0  13071-3 0  9997
2 43187  97.5333 103.2112 0006833 268.3508  91.6942 15.16899456463375
S-NET A                 
1 43188U 18014J   26198.60868444  .00002499  00000+0  13012-3 0  9997
2 43188  97.5341 103.4127 0006726 269.2169  90.8294 15.16938167463371
S-NET C                 
1 43189U 18014K   26198.62606723  .00002431  00000+0  12681-3 0  9997
2 43189  97.5360 103.5091 0008107 260.1574  99.8744 15.16890487461929
SALSAT                  
1 46495U 20068K   26197.96833821  .00003909  00000+0  13663-3 0  9991
2 46495  97.8858 202.8562 0009384 186.4299 173.6821 15.30186484319914
OOV-CUBE (TUBSAT-30)    
1 60240U 24128F   26198.72882110  .00000883  00000+0  80211-4 0  9998
2 60240  61.9940 119.0668 0040796 140.5650 219.8424 15.02879435110704
LPNTSAT-001 (IOD-1)     
1 68408U 26065A   26197.59623333  .00001320  00000+0  66800-4 0  9993
2 68408  97.3978  77.4803 0014622 260.9687  98.9893 15.18672911 16726
CHUANG XIN 26 (CX-26)   
1 69972U 26158A   26194.51442212 -.00000212  00000+0 -21871-4 0  9997
2 69972  49.9860 287.5119 0004887 294.2352  65.8050 14.25122238   462
